{"station":"ZSPD","date":"2026/03/27 05:30","rawOb":"ZSPD 270530Z 18005MPS CAVOK 17/09 Q1015 NOSIG","updated":"2026-03-27T05:30:00Z"}
